ORBCOMM FM33 [-]        
1 25983U 99065D   24054.91056475  .00001316  00000+0  48382-3 0  9996
2 25983  45.0288 112.6788 0009014 184.3648 345.3268 14.37343369267040
ORBCOMM FM36 [-]        
1 25984U 99065E   24054.73418562  .00001775  00000+0  66413-3 0  9990
2 25984  45.0380 197.6930 0002389  63.5880 296.5213 14.35212629265474
ORBCOMM FM35 [+]        
1 25985U 99065F   24054.82505032  .00001435  00000+0  55016-3 0  9990
2 25985  45.0385 199.6858 0003953 169.1016 190.9917 14.34849562265887
ORBCOMM FM34 [-]        
1 25986U 99065G   24054.65418211  .00001572  00000+0  59827-3 0  9990
2 25986  45.0381 201.0069 0003592 117.1441 242.9773 14.34807312265975
ORBCOMM FM38 [-]        
1 33060U 08031A   24054.72785839  .00002592  00000+0  39293-3 0  9994
2 33060  48.4410  72.3321 0004851 149.5286 210.5910 14.76994642843775
ORBCOMM FM41 [-]        
1 33061U 08031B   24054.79157227  .00002400  00000+0  36817-3 0  9993
2 33061  48.4445  78.4735 0003895 134.7709  35.3763 14.76732781843282
ORBCOMM FM29 [-]        
1 33062U 08031C   24054.84366456  .00002334  00000+0  35951-3 0  9990
2 33062  48.4395  86.2525 0005711 132.2900  38.1906 14.76648837843206
ORBCOMM FM39 [-]        
1 33063U 08031D   24054.86260081  .00001976  00000+0  31546-3 0  9997
2 33063  48.4406 106.1229 0006607 106.0152 254.1489 14.75720063842910
